start=new Date('2022-12-05T00:00:00.000Z').valueOf();
sats=[{"OBJECT_ID":"2020-001L","PERIOD":"95.593","ELEMENT_SET_NO":"999","NORAD_CAT_ID":"44924","OBJECT_NAME":"STARLINK-1111","DECAY_DATE":null,"TLE_LINE1":"1 44924U 20001L   22338.29141925 -.00000271  00000-0  69039-6 0  9991","EPHEMERIS_TYPE":"0","INCLINATION":"53.0554","TIME_SYSTEM":"UTC","APOAPSIS":"548.495","EPOCH":"2022-12-04T06:59:38.623200","MEAN_MOTION":"15.06390101","MEAN_ANOMALY":"297.9013","REV_AT_EPOCH":"16027","FILE":"3681417","GP_ID":"219529533","OBJECT_TYPE":"PAYLOAD","ECCENTRICITY":"0.00018070","RCS_SIZE":"LARGE","CLASSIFICATION_TYPE":"U","LAUNCH_DATE":"2020-01-07","MEAN_MOTION_DDOT":"0.0000000000000","MEAN_ELEMENT_THEORY":"SGP4","SEMIMAJOR_AXIS":"6925.379","TLE_LINE2":"2 44924  53.0554 295.0270 0001807  62.2159 297.9013 15.06390101160276","SITE":"AFETR","REF_FRAME":"TEME","CENTER_NAME":"EARTH","MEAN_MOTION_DOT":"-0.00000271","RA_OF_ASC_NODE":"295.0270","BSTAR":"0.00000069039000","COUNTRY_CODE":"US","PERIAPSIS":"545.992","ARG_OF_PERICENTER":"62.2159"},{"COUNTRY_CODE":"US","PERIAPSIS":"546.123","ARG_OF_PERICENTER":"54.3938","RA_OF_ASC_NODE":"292.5650","BSTAR":"0.00013672000000","REF_FRAME":"TEME","CENTER_NAME":"EARTH","MEAN_MOTION_DOT":"0.00001756","SEMIMAJOR_AXIS":"6925.347","TLE_LINE2":"2 44925  53.0551 292.5650 0001572  54.3938 305.7197 15.06400622160354","SITE":"AFETR","MEAN_ELEMENT_THEORY":"SGP4","MEAN_MOTION_DDOT":"0.0000000000000","LAUNCH_DATE":"2020-01-07","OBJECT_TYPE":"PAYLOAD","ECCENTRICITY":"0.00015720","CLASSIFICATION_TYPE":"U","RCS_SIZE":"LARGE","FILE":"3681494","GP_ID":"219550981","MEAN_ANOMALY":"305.7197","REV_AT_EPOCH":"16035","MEAN_MOTION":"15.06400622","TIME_SYSTEM":"UTC","INCLINATION":"53.0551","APOAPSIS":"548.300","EPOCH":"2022-12-04T20:05:10.653504","EPHEMERIS_TYPE":"0","OBJECT_NAME":"STARLINK-1112","DECAY_DATE":null,"TLE_LINE1":"1 44925U 20001M   22338.83692886  .00001756  00000-0  13672-3 0  9996","NORAD_CAT_ID":"44925","OBJECT_ID":"2020-001M","PERIOD":"95.592","ELEMENT_SET_NO":"999"},{"ARG_OF_PERICENTER":"64.3320","PERIAPSIS":"548.848","COUNTRY_CODE":"US","BSTAR":"0.00024347000000","RA_OF_ASC_NODE":"292.4305","MEAN_MOTION_DOT":"0.00003270","CENTER_NAME":"EARTH","REF_FRAME":"TEME","SITE":"AFETR","TLE_LINE2":"2 44926  53.0020 292.4305 0001280  64.3320 295.7800 15.05577764161052","SEMIMAJOR_AXIS":"6927.870","MEAN_MOTION_DDOT":"0.0000000000000","MEAN_ELEMENT_THEORY":"SGP4","LAUNCH_DATE":"2020-01-07","CLASSIFICATION_TYPE":"U","RCS_SIZE":"LARGE","ECCENTRICITY":"0.00012800","OBJECT_TYPE":"PAYLOAD","GP_ID":"219551222","FILE":"3681494","REV_AT_EPOCH":"16105","MEAN_ANOMALY":"295.7800","MEAN_MOTION":"15.05577764","APOAPSIS":"550.622","EPOCH":"2022-12-04T20:53:58.960320","TIME_SYSTEM":"UTC","INCLINATION":"53.0020","EPHEMERIS_TYPE":"0","TLE_LINE1":"1 44926U 20001N   22338.87082130  .00003270  00000-0  24347-3 0  9990","DECAY_DATE":null,"OBJECT_NAME":"STARLINK-1113","NORAD_CAT_ID":"44926","ELEMENT_SET_NO":"999","PERIOD":"95.644","OBJECT_ID":"2020-001N"},{"TLE_LINE2":"2 44927  53.0558 293.7004 0001873  60.2726 299.8449 15.06393593160322","SITE":"AFETR","SEMIMAJOR_AXIS":"6925.368","MEAN_MOTION_DOT":"-0.00001094","CENTER_NAME":"EARTH","REF_FRAME":"TEME","BSTAR":"-0.00005453600000","RA_OF_ASC_NODE":"293.7004","ARG_OF_PERICENTER":"60.2726","PERIAPSIS":"545.936","COUNTRY_CODE":"US","RCS_SIZE":"LARGE","CLASSIFICATION_TYPE":"U","ECCENTRICITY":"0.00018730","OBJECT_TYPE":"PAYLOAD","LAUNCH_DATE":"2020-01-07","MEAN_ELEMENT_THEORY":"SGP4","MEAN_MOTION_DDOT":"0.0000000000000","APOAPSIS":"548.530","EPOCH":"2022-12-04T13:58:57.384768","TIME_SYSTEM":"UTC","INCLINATION":"53.0558","MEAN_MOTION":"15.06393593","REV_AT_EPOCH":"16032","MEAN_ANOMALY":"299.8449","GP_ID":"219530007","FILE":"3681417","ELEMENT_SET_NO":"999","PERIOD":"95.593","OBJECT_ID":"2020-001P","NORAD_CAT_ID":"44927","TLE_LINE1":"1 44927U 20001P   22338.58260862 -.00001094  00000-0 -54536-4 0  9997","DECAY_DATE":null,"OBJECT_NAME":"STARLINK-1114","EPHEMERIS_TYPE":"0"},{"OBJECT_TYPE":"PAYLOAD","ECCENTRICITY":"0.00020420","CLASSIFICATION_TYPE":"U","RCS_SIZE":"LARGE","MEAN_MOTION_DDOT":"0.0000000000000","MEAN_ELEMENT_THEORY":"SGP4","LAUNCH_DATE":"2020-01-07","REF_FRAME":"TEME","CENTER_NAME":"EARTH","MEAN_MOTION_DOT":"-0.00000871","SEMIMAJOR_AXIS":"6925.365","SITE":"AFETR","TLE_LINE2":"2 44928  53.0574 293.7257 0002042  51.8957 308.2216 15.06394741160325","COUNTRY_CODE":"US","PERIAPSIS":"545.816","ARG_OF_PERICENTER":"51.8957","RA_OF_ASC_NODE":"293.7257","BSTAR":"-0.00003955400000","NORAD_CAT_ID":"44928","OBJECT_ID":"2020-001Q","PERIOD":"95.592","ELEMENT_SET_NO":"999","EPHEMERIS_TYPE":"0","OBJECT_NAME":"STARLINK-1119","DECAY_DATE":null,"TLE_LINE1":"1 44928U 20001Q   22338.57892052 -.00000871  00000-0 -39554-4 0  9994","MEAN_MOTION":"15.06394741","TIME_SYSTEM":"UTC","INCLINATION":"53.0574","APOAPSIS":"548.644","EPOCH":"2022-12-04T13:53:38.732928","FILE":"3681415","GP_ID":"219530028","MEAN_ANOMALY":"308.2216","REV_AT_EPOCH":"16032"},{"EPHEMERIS_TYPE":"0","OBJECT_NAME":"STARLINK-1121","TLE_LINE1":"1 44929U 20001R   22338.29877756  .00000756  00000-0  69628-4 0  9993","DECAY_DATE":null,"NORAD_CAT_ID":"44929","OBJECT_ID":"2020-001R","ELEMENT_SET_NO":"999","PERIOD":"95.592","FILE":"3681207","GP_ID":"219517588","REV_AT_EPOCH":"16027","MEAN_ANOMALY":"295.3711","MEAN_MOTION":"15.06407124","APOAPSIS":"548.436","EPOCH":"2022-12-04T07:10:14.381184","INCLINATION":"53.0559","TIME_SYSTEM":"UTC","MEAN_ELEMENT_THEORY":"SGP4","MEAN_MOTION_DDOT":"0.0000000000000","LAUNCH_DATE":"2020-01-07","OBJECT_TYPE":"PAYLOAD","RCS_SIZE":"LARGE","CLASSIFICATION_TYPE":"U","ECCENTRICITY":"0.00017970","COUNTRY_CODE":"US","ARG_OF_PERICENTER":"64.7464","PERIAPSIS":"545.947","RA_OF_ASC_NODE":"294.9842","BSTAR":"0.00006962800000","REF_FRAME":"TEME","MEAN_MOTION_DOT":"0.00000756","CENTER_NAME":"EARTH","TLE_LINE2":"2 44929  53.0559 294.9842 0001797  64.7464 295.3711 15.06407124160274","SITE":"AFETR","SEMIMAJOR_AXIS":"6925.327"},{"LAUNCH_DATE":"2020-01-07","MEAN_MOTION_DDOT":"0.0000000000000","MEAN_ELEMENT_THEORY":"SGP4","OBJECT_TYPE":"PAYLOAD","ECCENTRICITY":"0.00018100","RCS_SIZE":"LARGE","CLASSIFICATION_TYPE":"U","RA_OF_ASC_NODE":"294.8461","BSTAR":"0.00032608000000","COUNTRY_CODE":"US","PERIAPSIS":"546.025","ARG_OF_PERICENTER":"59.4848","SEMIMAJOR_AXIS":"6925.414","TLE_LINE2":"2 44930  53.0557 294.8461 0001810  59.4848 300.6319 15.06378771160283","SITE":"AFETR","REF_FRAME":"TEME","CENTER_NAME":"EARTH","MEAN_MOTION_DOT":"0.00004576","OBJECT_NAME":"STARLINK-1123","DECAY_DATE":null,"TLE_LINE1":"1 44930U 20001S   22338.33196098  .00004576  00000-0  32608-3 0  9994","EPHEMERIS_TYPE":"0","OBJECT_ID":"2020-001S","PERIOD":"95.593","ELEMENT_SET_NO":"999","NORAD_CAT_ID":"44930","MEAN_ANOMALY":"300.6319","REV_AT_EPOCH":"16028","FILE":"3681415","GP_ID":"219529543","TIME_SYSTEM":"UTC","INCLINATION":"53.0557","EPOCH":"2022-12-04T07:58:01.428672","APOAPSIS":"548.532","MEAN_MOTION":"15.06378771"},{"ARG_OF_PERICENTER":"60.8760","PERIAPSIS":"531.557","COUNTRY_CODE":"US","BSTAR":"0.00005284300000","RA_OF_ASC_NODE":"283.2561","MEAN_MOTION_DOT":"0.00000601","CENTER_NAME":"EARTH","REF_FRAME":"TEME","SITE":"AFETR","TLE_LINE2":"2 44931  53.0549 283.2561 0001663  60.8760 299.2398 15.11145800161218","SEMIMAJOR_AXIS":"6910.841","MEAN_ELEMENT_THEORY":"SGP4","MEAN_MOTION_DDOT":"0.0000000000000","LAUNCH_DATE":"2020-01-07","RCS_SIZE":"LARGE","CLASSIFICATION_TYPE":"U","ECCENTRICITY":"0.00016630","OBJECT_TYPE":"PAYLOAD","GP_ID":"219518088","FILE":"3681207","REV_AT_EPOCH":"16121","MEAN_ANOMALY":"299.2398","MEAN_MOTION":"15.11145800","APOAPSIS":"533.856","EPOCH":"2022-12-04T13:41:06.989856","TIME_SYSTEM":"UTC","INCLINATION":"53.0549","EPHEMERIS_TYPE":"0","TLE_LINE1":"1 44931U 20001T   22338.57021979  .00000601  00000-0  52843-4 0  9995","DECAY_DATE":null,"OBJECT_NAME":"STARLINK-1128","NORAD_CAT_ID":"44931","ELEMENT_SET_NO":"999","PERIOD":"95.292","OBJECT_ID":"2020-001T"},{"ARG_OF_PERICENTER":"59.3538","PERIAPSIS":"545.931","COUNTRY_CODE":"US","BSTAR":"-0.00006096800000","RA_OF_ASC_NODE":"293.6941","MEAN_MOTION_DOT":"-0.00001190","CENTER_NAME":"EARTH","REF_FRAME":"TEME","TLE_LINE2":"2 44932  53.0565 293.6941 0001858  59.3538 300.7634 15.06398531161559","SITE":"AFETR","SEMIMAJOR_AXIS":"6925.353","MEAN_ELEMENT_THEORY":"SGP4","MEAN_MOTION_DDOT":"0.0000000000000","LAUNCH_DATE":"2020-01-07","CLASSIFICATION_TYPE":"U","RCS_SIZE":"LARGE","ECCENTRICITY":"0.00018580","OBJECT_TYPE":"PAYLOAD","GP_ID":"219530025","FILE":"3681415","REV_AT_EPOCH":"16155","MEAN_ANOMALY":"300.7634","MEAN_MOTION":"15.06398531","APOAPSIS":"548.505","EPOCH":"2022-12-04T14:04:15.174336","TIME_SYSTEM":"UTC","INCLINATION":"53.0565","EPHEMERIS_TYPE":"0","TLE_LINE1":"1 44932U 20001U   22338.58628674 -.00001190  00000-0 -60968-4 0  9995","DECAY_DATE":null,"OBJECT_NAME":"STARLINK-1130","NORAD_CAT_ID":"44932","ELEMENT_SET_NO":"999","PERIOD":"95.592","OBJECT_ID":"2020-001U"},{"LAUNCH_DATE":"2020-01-07","MEAN_MOTION_DDOT":"0.0000000000000","MEAN_ELEMENT_THEORY":"SGP4","ECCENTRICITY":"0.00020570","CLASSIFICATION_TYPE":"U","RCS_SIZE":"LARGE","OBJECT_TYPE":"PAYLOAD","BSTAR":"0.00007301500000","RA_OF_ASC_NODE":"294.4739","PERIAPSIS":"545.772","ARG_OF_PERICENTER":"51.4187","COUNTRY_CODE":"US","SEMIMAJOR_AXIS":"6925.332","SITE":"AFETR","TLE_LINE2":"2 44933  53.0545 294.4739 0002057  51.4187 308.6986 15.06405410161582","CENTER_NAME":"EARTH","MEAN_MOTION_DOT":"0.00000806","REF_FRAME":"TEME","DECAY_DATE":null,"TLE_LINE1":"1 44933U 20001V   22338.41304814  .00000806  00000-0  73015-4 0  9993","OBJECT_NAME":"STARLINK-1144","EPHEMERIS_TYPE":"0","PERIOD":"95.592","ELEMENT_SET_NO":"999","OBJECT_ID":"2020-001V","NORAD_CAT_ID":"44933","MEAN_ANOMALY":"308.6986","REV_AT_EPOCH":"16158","GP_ID":"219517088","FILE":"3681207","TIME_SYSTEM":"UTC","INCLINATION":"53.0545","EPOCH":"2022-12-04T09:54:47.359296","APOAPSIS":"548.622","MEAN_MOTION":"15.06405410"}];
